ONEWEB-0573             
1 55152U 23004N   25287.27447762  .00000054  00000+0  10382-3 0  9995
2 55152  87.9214  24.3353 0002716  97.1727 262.9714 13.18686651137287
ONEWEB-0588             
1 55153U 23004P   25287.26786562  .00000069  00000+0  14192-3 0  9998
2 55153  87.9222  24.3257 0002152  92.3576 267.7802 13.18684562137283
ONEWEB-0598             
1 55154U 23004Q   25287.10317215 -.00000204  00000+0 -61264-3 0  9992
2 55154  87.8811  70.0880 0002197 108.5462 251.5905 13.11414201133645
ONEWEB-0599             
1 55155U 23004R   25287.29545421  .00000062  00000+0  12683-3 0  9996
2 55155  87.9105  54.7666 0001760 104.6846 255.4481 13.17646859135109
ONEWEB-0614             
1 55156U 23004S   25287.32698725  .00000103  00000+0  25478-3 0  9999
2 55156  87.8809  70.0528 0001782  84.6811 275.4520 13.11414465133611
ONEWEB-0616             
1 55157U 23004T   25286.80609999  .00000173  00000+0  41336-3 0  9995
2 55157  87.9101  54.8547 0001323 135.9172 224.2065 13.17650082135251
ONEWEB-0617             
1 55158U 23004U   25287.31512062  .00000517  00000+0  14222-2 0  9992
2 55158  87.8816  70.0340 0001897  87.0942 273.0403 13.11416613133635
ONEWEB-0618             
1 55159U 23004V   25287.33335648  .01940882  00000+0  12475+0 0  9992
2 55159  86.9067 277.2738 0016237 118.7863 339.2709 15.05163370  5540
ONEWEB-0619             
1 55160U 23004W   25287.29376149  .00000068  00000+0  14272-3 0  9993
2 55160  87.9103  54.7319 0001296  87.6428 272.4852 13.17651167135219
ONEWEB-0620             
1 55161U 23004X   25287.31003263  .00000504  00000+0  13852-2 0  9998
2 55161  87.8810  70.0554 0001861  96.1886 263.9454 13.11417444133603
ONEWEB-0621             
1 55162U 23004Y   25287.10825762 -.00000363  00000+0 -10589-2 0  9991
2 55162  87.8823  70.0594 0001566  88.1337 271.9970 13.11414167133551
ONEWEB-0622             
1 55163U 23004Z   25287.11335116 -.00000619  00000+0 -17831-2 0  9993
2 55163  87.8808  70.0743 0002217  77.9769 282.1608 13.11413890133543
ONEWEB-0623             
1 55164U 23004AA  25287.28871253  .00000064  00000+0  13279-3 0  9994
2 55164  87.9099  54.7869 0001796  74.1292 286.0038 13.17648331135207
ONEWEB-0624             
1 55165U 23004AB  25287.26753631 -.00000352  00000+0 -10059-2 0  9996
2 55165  87.8950  39.4888 0001687  90.9339 269.1983 13.12915467135800
ONEWEB-0625             
1 55166U 23004AC  25287.27857739  .00000055  00000+0  10940-3 0  9990
2 55166  87.9094  54.7849 0001567 102.6065 257.5241 13.17650981135194
ONEWEB-0626             
1 55167U 23004AD  25287.26847074 -.00000012  00000+0 -63465-4 0  9997
2 55167  87.9092  54.7859 0002182 105.6464 254.4908 13.17649865135199
ONEWEB-0627             
1 55168U 23004AE  25287.10479230 -.00000078  00000+0 -23513-3 0  9997
2 55168  87.9089  54.8195 0001888  80.7372 279.3973 13.17649428135174
