[{"OBJECT_NAME":"ONEWEB-0573","OBJECT_ID":"2023-004N","EPOCH":"2025-10-14T06:35:14.866368","MEAN_MOTION":13.18686651,"ECCENTRICITY":0.00027162,"INCLINATION":87.9214,"RA_OF_ASC_NODE":24.3353,"ARG_OF_PERICENTER":97.1727,"MEAN_ANOMALY":262.9714,"EPHEMERIS_TYPE":0,"CLASSIFICATION_TYPE":"U","NORAD_CAT_ID":55152,"ELEMENT_SET_NO":999,"REV_AT_EPOCH":13728,"BSTAR":0.00010382068,"MEAN_MOTION_DOT":5.4e-7,"MEAN_MOTION_DDOT":0},{"OBJECT_NAME":"ONEWEB-0588","OBJECT_ID":"2023-004P","EPOCH":"2025-10-14T06:25:43.589568","MEAN_MOTION":13.18684562,"ECCENTRICITY":0.00021526,"INCLINATION":87.9222,"RA_OF_ASC_NODE":24.3257,"ARG_OF_PERICENTER":92.3576,"MEAN_ANOMALY":267.7802,"EPHEMERIS_TYPE":0,"CLASSIFICATION_TYPE":"U","NORAD_CAT_ID":55153,"ELEMENT_SET_NO":999,"REV_AT_EPOCH":13728,"BSTAR":0.00014191926,"MEAN_MOTION_DOT":6.9e-7,"MEAN_MOTION_DDOT":0},{"OBJECT_NAME":"ONEWEB-0598","OBJECT_ID":"2023-004Q","EPOCH":"2025-10-14T02:28:34.073760","MEAN_MOTION":13.11414201,"ECCENTRICITY":0.0002197,"INCLINATION":87.8811,"RA_OF_ASC_NODE":70.088,"ARG_OF_PERICENTER":108.5462,"MEAN_ANOMALY":251.5905,"EPHEMERIS_TYPE":0,"CLASSIFICATION_TYPE":"U","NORAD_CAT_ID":55154,"ELEMENT_SET_NO":999,"REV_AT_EPOCH":13364,"BSTAR":-0.00061263663,"MEAN_MOTION_DOT":-2.04e-6,"MEAN_MOTION_DDOT":0},{"OBJECT_NAME":"ONEWEB-0599","OBJECT_ID":"2023-004R","EPOCH":"2025-10-14T07:05:27.243744","MEAN_MOTION":13.17646859,"ECCENTRICITY":0.00017608,"INCLINATION":87.9105,"RA_OF_ASC_NODE":54.7666,"ARG_OF_PERICENTER":104.6846,"MEAN_ANOMALY":255.4481,"EPHEMERIS_TYPE":0,"CLASSIFICATION_TYPE":"U","NORAD_CAT_ID":55155,"ELEMENT_SET_NO":999,"REV_AT_EPOCH":13510,"BSTAR":0.00012682939,"MEAN_MOTION_DOT":6.2e-7,"MEAN_MOTION_DDOT":0},{"OBJECT_NAME":"ONEWEB-0614","OBJECT_ID":"2023-004S","EPOCH":"2025-10-14T07:50:51.698400","MEAN_MOTION":13.11414465,"ECCENTRICITY":0.00017829,"INCLINATION":87.8809,"RA_OF_ASC_NODE":70.0528,"ARG_OF_PERICENTER":84.6811,"MEAN_ANOMALY":275.452,"EPHEMERIS_TYPE":0,"CLASSIFICATION_TYPE":"U","NORAD_CAT_ID":55156,"ELEMENT_SET_NO":999,"REV_AT_EPOCH":13361,"BSTAR":0.00025477508,"MEAN_MOTION_DOT":1.03e-6,"MEAN_MOTION_DDOT":0},{"OBJECT_NAME":"ONEWEB-0616","OBJECT_ID":"2023-004T","EPOCH":"2025-10-13T19:20:47.039136","MEAN_MOTION":13.17650082,"ECCENTRICITY":0.0001323,"INCLINATION":87.9101,"RA_OF_ASC_NODE":54.8547,"ARG_OF_PERICENTER":135.9172,"MEAN_ANOMALY":224.2065,"EPHEMERIS_TYPE":0,"CLASSIFICATION_TYPE":"U","NORAD_CAT_ID":55157,"ELEMENT_SET_NO":999,"REV_AT_EPOCH":13525,"BSTAR":0.00041336471,"MEAN_MOTION_DOT":1.73e-6,"MEAN_MOTION_DDOT":0},{"OBJECT_NAME":"ONEWEB-0617","OBJECT_ID":"2023-004U","EPOCH":"2025-10-14T07:33:46.421568","MEAN_MOTION":13.11416613,"ECCENTRICITY":0.00018975,"INCLINATION":87.8816,"RA_OF_ASC_NODE":70.034,"ARG_OF_PERICENTER":87.0942,"MEAN_ANOMALY":273.0403,"EPHEMERIS_TYPE":0,"CLASSIFICATION_TYPE":"U","NORAD_CAT_ID":55158,"ELEMENT_SET_NO":999,"REV_AT_EPOCH":13363,"BSTAR":0.0014222086,"MEAN_MOTION_DOT":5.17e-6,"MEAN_MOTION_DDOT":0},{"OBJECT_NAME":"ONEWEB-0618","OBJECT_ID":"2023-004V","EPOCH":"2025-10-14T08:00:01.999872","MEAN_MOTION":15.0516337,"ECCENTRICITY":0.00162374,"INCLINATION":86.9067,"RA_OF_ASC_NODE":277.2738,"ARG_OF_PERICENTER":118.7863,"MEAN_ANOMALY":339.2709,"EPHEMERIS_TYPE":0,"CLASSIFICATION_TYPE":"U","NORAD_CAT_ID":55159,"ELEMENT_SET_NO":999,"REV_AT_EPOCH":554,"BSTAR":0.12475173,"MEAN_MOTION_DOT":0.01940882,"MEAN_MOTION_DDOT":0},{"OBJECT_NAME":"ONEWEB-0619","OBJECT_ID":"2023-004W","EPOCH":"2025-10-14T07:03:00.992736","MEAN_MOTION":13.17651167,"ECCENTRICITY":0.0001296,"INCLINATION":87.9103,"RA_OF_ASC_NODE":54.7319,"ARG_OF_PERICENTER":87.6428,"MEAN_ANOMALY":272.4852,"EPHEMERIS_TYPE":0,"CLASSIFICATION_TYPE":"U","NORAD_CAT_ID":55160,"ELEMENT_SET_NO":999,"REV_AT_EPOCH":13521,"BSTAR":0.00014271924,"MEAN_MOTION_DOT":6.8e-7,"MEAN_MOTION_DDOT":0},{"OBJECT_NAME":"ONEWEB-0620","OBJECT_ID":"2023-004X","EPOCH":"2025-10-14T07:26:26.819232","MEAN_MOTION":13.11417444,"ECCENTRICITY":0.0001861,"INCLINATION":87.881,"RA_OF_ASC_NODE":70.0554,"ARG_OF_PERICENTER":96.1886,"MEAN_ANOMALY":263.9454,"EPHEMERIS_TYPE":0,"CLASSIFICATION_TYPE":"U","NORAD_CAT_ID":55161,"ELEMENT_SET_NO":999,"REV_AT_EPOCH":13360,"BSTAR":0.0013852067,"MEAN_MOTION_DOT":5.04e-6,"MEAN_MOTION_DDOT":0},{"OBJECT_NAME":"ONEWEB-0621","OBJECT_ID":"2023-004Y","EPOCH":"2025-10-14T02:35:53.458368","MEAN_MOTION":13.11414167,"ECCENTRICITY":0.00015667,"INCLINATION":87.8823,"RA_OF_ASC_NODE":70.0594,"ARG_OF_PERICENTER":88.1337,"MEAN_ANOMALY":271.997,"EPHEMERIS_TYPE":0,"CLASSIFICATION_TYPE":"U","NORAD_CAT_ID":55162,"ELEMENT_SET_NO":999,"REV_AT_EPOCH":13355,"BSTAR":-0.0010588867,"MEAN_MOTION_DOT":-3.63e-6,"MEAN_MOTION_DDOT":0},{"OBJECT_NAME":"ONEWEB-0622","OBJECT_ID":"2023-004Z","EPOCH":"2025-10-14T02:43:13.540224","MEAN_MOTION":13.1141389,"ECCENTRICITY":0.00022173,"INCLINATION":87.8808,"RA_OF_ASC_NODE":70.0743,"ARG_OF_PERICENTER":77.9769,"MEAN_ANOMALY":282.1608,"EPHEMERIS_TYPE":0,"CLASSIFICATION_TYPE":"U","NORAD_CAT_ID":55163,"ELEMENT_SET_NO":999,"REV_AT_EPOCH":13354,"BSTAR":-0.0017831265,"MEAN_MOTION_DOT":-6.19e-6,"MEAN_MOTION_DDOT":0},{"OBJECT_NAME":"ONEWEB-0623","OBJECT_ID":"2023-004AA","EPOCH":"2025-10-14T06:55:44.762592","MEAN_MOTION":13.17648331,"ECCENTRICITY":0.0001796,"INCLINATION":87.9099,"RA_OF_ASC_NODE":54.7869,"ARG_OF_PERICENTER":74.1292,"MEAN_ANOMALY":286.0038,"EPHEMERIS_TYPE":0,"CLASSIFICATION_TYPE":"U","NORAD_CAT_ID":55164,"ELEMENT_SET_NO":999,"REV_AT_EPOCH":13520,"BSTAR":0.00013279271,"MEAN_MOTION_DOT":6.4e-7,"MEAN_MOTION_DDOT":0},{"OBJECT_NAME":"ONEWEB-0624","OBJECT_ID":"2023-004AB","EPOCH":"2025-10-14T06:25:15.137184","MEAN_MOTION":13.12915467,"ECCENTRICITY":0.00016873,"INCLINATION":87.895,"RA_OF_ASC_NODE":39.4888,"ARG_OF_PERICENTER":90.9339,"MEAN_ANOMALY":269.1983,"EPHEMERIS_TYPE":0,"CLASSIFICATION_TYPE":"U","NORAD_CAT_ID":55165,"ELEMENT_SET_NO":999,"REV_AT_EPOCH":13580,"BSTAR":-0.0010058691,"MEAN_MOTION_DOT":-3.52e-6,"MEAN_MOTION_DDOT":0},{"OBJECT_NAME":"ONEWEB-0625","OBJECT_ID":"2023-004AC","EPOCH":"2025-10-14T06:41:09.086496","MEAN_MOTION":13.17650981,"ECCENTRICITY":0.00015675,"INCLINATION":87.9094,"RA_OF_ASC_NODE":54.7849,"ARG_OF_PERICENTER":102.6065,"MEAN_ANOMALY":257.5241,"EPHEMERIS_TYPE":0,"CLASSIFICATION_TYPE":"U","NORAD_CAT_ID":55166,"ELEMENT_SET_NO":999,"REV_AT_EPOCH":13519,"BSTAR":0.00010939554,"MEAN_MOTION_DOT":5.5e-7,"MEAN_MOTION_DDOT":0},{"OBJECT_NAME":"ONEWEB-0626","OBJECT_ID":"2023-004AD","EPOCH":"2025-10-14T06:26:35.871936","MEAN_MOTION":13.17649865,"ECCENTRICITY":0.00021825,"INCLINATION":87.9092,"RA_OF_ASC_NODE":54.7859,"ARG_OF_PERICENTER":105.6464,"MEAN_ANOMALY":254.4908,"EPHEMERIS_TYPE":0,"CLASSIFICATION_TYPE":"U","NORAD_CAT_ID":55167,"ELEMENT_SET_NO":999,"REV_AT_EPOCH":13519,"BSTAR":-6.3464652e-5,"MEAN_MOTION_DOT":-1.2e-7,"MEAN_MOTION_DDOT":0},{"OBJECT_NAME":"ONEWEB-0627","OBJECT_ID":"2023-004AE","EPOCH":"2025-10-14T02:30:54.054720","MEAN_MOTION":13.17649428,"ECCENTRICITY":0.0001888,"INCLINATION":87.9089,"RA_OF_ASC_NODE":54.8195,"ARG_OF_PERICENTER":80.7372,"MEAN_ANOMALY":279.3973,"EPHEMERIS_TYPE":0,"CLASSIFICATION_TYPE":"U","NORAD_CAT_ID":55168,"ELEMENT_SET_NO":999,"REV_AT_EPOCH":13517,"BSTAR":-0.00023512583,"MEAN_MOTION_DOT":-7.8e-7,"MEAN_MOTION_DDOT":0}]
